start=new Date('2021-12-20T00:00:00.000Z').valueOf();
sats=[{"MEAN_MOTION_DDOT":"0.0000000000000","EPOCH":"2021-12-19T14:03:16.855200","SEMIMAJOR_AXIS":"6925.334","PERIAPSIS":"545.762","CLASSIFICATION_TYPE":"U","RCS_SIZE":"LARGE","ECCENTRICITY":"0.00020750","OBJECT_ID":"2021-018BC","ARG_OF_PERICENTER":"55.0759","TIME_SYSTEM":"UTC","REV_AT_EPOCH":"4460","EPHEMERIS_TYPE":"0","APOAPSIS":"548.636","OBJECT_TYPE":"PAYLOAD","NORAD_CAT_ID":"47837","REF_FRAME":"TEME","LAUNCH_DATE":"2021-03-11","INCLINATION":"53.0564","MEAN_ELEMENT_THEORY":"SGP4","MEAN_ANOMALY":"305.0425","MEAN_MOTION_DOT":"0.00001500","DECAY_DATE":null,"PERIOD":"95.592","OBJECT_NAME":"STARLINK-2427","GP_ID":"192040806","CENTER_NAME":"EARTH","FILE":"3244825","RA_OF_ASC_NODE":"309.9127","MEAN_MOTION":"15.06404608","ELEMENT_SET_NO":"999","SITE":"AFETR","BSTAR":"0.00011959000000","COUNTRY_CODE":"US","TLE_LINE2":"2 47837  53.0564 309.9127 0002075  55.0759 305.0425 15.06404608 44607","TLE_LINE1":"1 47837U 21018BC  21353.58561175  .00001500  00000-0  11959-3 0  9997"},{"TLE_LINE1":"1 47838U 21018BD  21353.66486453  .00001320  00000-0  10754-3 0  9994","TLE_LINE2":"2 47838  53.0555 329.5512 0001912  56.0072 304.1098 15.06399512 44324","BSTAR":"0.00010754000000","COUNTRY_CODE":"US","SITE":"AFETR","ELEMENT_SET_NO":"999","MEAN_MOTION":"15.06399512","FILE":"3244825","RA_OF_ASC_NODE":"329.5512","CENTER_NAME":"EARTH","GP_ID":"192041558","PERIOD":"95.592","OBJECT_NAME":"STARLINK-2429","DECAY_DATE":null,"MEAN_MOTION_DOT":"0.00001320","MEAN_ANOMALY":"304.1098","INCLINATION":"53.0555","LAUNCH_DATE":"2021-03-11","MEAN_ELEMENT_THEORY":"SGP4","NORAD_CAT_ID":"47838","REF_FRAME":"TEME","APOAPSIS":"548.539","OBJECT_TYPE":"PAYLOAD","EPHEMERIS_TYPE":"0","REV_AT_EPOCH":"4432","ECCENTRICITY":"0.00019120","TIME_SYSTEM":"UTC","OBJECT_ID":"2021-018BD","ARG_OF_PERICENTER":"56.0072","RCS_SIZE":"LARGE","PERIAPSIS":"545.891","CLASSIFICATION_TYPE":"U","SEMIMAJOR_AXIS":"6925.350","EPOCH":"2021-12-19T15:57:24.295392","MEAN_MOTION_DDOT":"0.0000000000000"},{"INCLINATION":"53.0544","LAUNCH_DATE":"2021-03-11","MEAN_ELEMENT_THEORY":"SGP4","MEAN_ANOMALY":"309.3341","APOAPSIS":"549.100","OBJECT_TYPE":"PAYLOAD","NORAD_CAT_ID":"47839","REF_FRAME":"TEME","OBJECT_ID":"2021-018BE","ECCENTRICITY":"0.00026950","ARG_OF_PERICENTER":"50.7887","TIME_SYSTEM":"UTC","RCS_SIZE":"LARGE","EPHEMERIS_TYPE":"0","REV_AT_EPOCH":"4479","EPOCH":"2021-12-19T21:25:09.962688","MEAN_MOTION_DDOT":"0.0000000000000","PERIAPSIS":"545.367","CLASSIFICATION_TYPE":"U","SEMIMAJOR_AXIS":"6925.368","TLE_LINE2":"2 47839  53.0544 298.5240 0002695  50.7887 309.3341 15.06393565 44791","TLE_LINE1":"1 47839U 21018BE  21353.89247642  .00001037  00000-0  88555-4 0  9995","SITE":"AFETR","COUNTRY_CODE":"US","BSTAR":"0.00008855500000","FILE":"3244825","RA_OF_ASC_NODE":"298.5240","ELEMENT_SET_NO":"999","MEAN_MOTION":"15.06393565","MEAN_MOTION_DOT":"0.00001037","DECAY_DATE":null,"CENTER_NAME":"EARTH","GP_ID":"192041308","PERIOD":"95.593","OBJECT_NAME":"STARLINK-2431"},{"SITE":"AFETR","COUNTRY_CODE":"US","BSTAR":"0.00010794000000","TLE_LINE2":"2 47840  53.0561 308.4735 0002208  53.6596 306.4596 15.06395761 44645","TLE_LINE1":"1 47840U 21018BF  21353.90260481  .00001326  00000-0  10794-3 0  9995","MEAN_MOTION_DOT":"0.00001326","DECAY_DATE":null,"GP_ID":"192040056","CENTER_NAME":"EARTH","PERIOD":"95.592","OBJECT_NAME":"STARLINK-2432","FILE":"3244825","RA_OF_ASC_NODE":"308.4735","ELEMENT_SET_NO":"999","MEAN_MOTION":"15.06395761","APOAPSIS":"548.756","OBJECT_TYPE":"PAYLOAD","NORAD_CAT_ID":"47840","REF_FRAME":"TEME","LAUNCH_DATE":"2021-03-11","INCLINATION":"53.0561","MEAN_ELEMENT_THEORY":"SGP4","MEAN_ANOMALY":"306.4596","EPOCH":"2021-12-19T21:39:45.055584","MEAN_MOTION_DDOT":"0.0000000000000","PERIAPSIS":"545.697","CLASSIFICATION_TYPE":"U","SEMIMAJOR_AXIS":"6925.362","ECCENTRICITY":"0.00022080","OBJECT_ID":"2021-018BF","ARG_OF_PERICENTER":"53.6596","TIME_SYSTEM":"UTC","RCS_SIZE":"LARGE","EPHEMERIS_TYPE":"0","REV_AT_EPOCH":"4464"},{"TLE_LINE1":"1 47841U 21018BG  21353.89891759  .00002092  00000-0  15930-3 0  9990","TLE_LINE2":"2 47841  53.0560 308.4885 0002006  60.2014 299.9174 15.06402115 44646","COUNTRY_CODE":"US","BSTAR":"0.00015930000000","SITE":"AFETR","MEAN_MOTION":"15.06402115","ELEMENT_SET_NO":"999","RA_OF_ASC_NODE":"308.4885","FILE":"3244825","OBJECT_NAME":"STARLINK-2433","PERIOD":"95.592","CENTER_NAME":"EARTH","GP_ID":"192040306","MEAN_MOTION_DOT":"0.00002092","DECAY_DATE":null,"MEAN_ANOMALY":"299.9174","LAUNCH_DATE":"2021-03-11","MEAN_ELEMENT_THEORY":"SGP4","INCLINATION":"53.0560","REF_FRAME":"TEME","NORAD_CAT_ID":"47841","OBJECT_TYPE":"PAYLOAD","APOAPSIS":"548.596","REV_AT_EPOCH":"4464","EPHEMERIS_TYPE":"0","RCS_SIZE":"LARGE","TIME_SYSTEM":"UTC","ECCENTRICITY":"0.00020060","OBJECT_ID":"2021-018BG","ARG_OF_PERICENTER":"60.2014","SEMIMAJOR_AXIS":"6925.342","PERIAPSIS":"545.818","CLASSIFICATION_TYPE":"U","MEAN_MOTION_DDOT":"0.0000000000000","EPOCH":"2021-12-19T21:34:26.479776"},{"SEMIMAJOR_AXIS":"6925.340","PERIAPSIS":"545.948","CLASSIFICATION_TYPE":"U","MEAN_MOTION_DDOT":"0.0000000000000","EPOCH":"2021-12-19T19:38:59.704512","REV_AT_EPOCH":"4426","EPHEMERIS_TYPE":"0","RCS_SIZE":"LARGE","ARG_OF_PERICENTER":"56.9612","OBJECT_ID":"2021-018BH","TIME_SYSTEM":"UTC","ECCENTRICITY":"0.00018160","NORAD_CAT_ID":"47842","REF_FRAME":"TEME","APOAPSIS":"548.463","OBJECT_TYPE":"PAYLOAD","MEAN_ANOMALY":"303.1551","LAUNCH_DATE":"2021-03-11","INCLINATION":"53.0572","MEAN_ELEMENT_THEORY":"SGP4","PERIOD":"95.592","OBJECT_NAME":"STARLINK-2434","CENTER_NAME":"EARTH","GP_ID":"192041058","DECAY_DATE":null,"MEAN_MOTION_DOT":"0.00001295","MEAN_MOTION":"15.06402659","ELEMENT_SET_NO":"999","FILE":"3244825","RA_OF_ASC_NODE":"338.8654","COUNTRY_CODE":"US","BSTAR":"0.00010579000000","SITE":"AFETR","TLE_LINE1":"1 47842U 21018BH  21353.81874658  .00001295  00000-0  10579-3 0  9990","TLE_LINE2":"2 47842  53.0572 338.8654 0001816  56.9612 303.1551 15.06402659 44263"},{"SITE":"AFETR","COUNTRY_CODE":"US","BSTAR":"0.00002523600000","TLE_LINE2":"2 47843  53.0571 334.5826 0001853  54.9246 305.1916 15.06393622 44276","TLE_LINE1":"1 47843U 21018BJ  21353.65887466  .00000094  00000-0  25236-4 0  9997","MEAN_MOTION_DOT":"0.00000094","DECAY_DATE":null,"GP_ID":"192041809","CENTER_NAME":"EARTH","OBJECT_NAME":"STARLINK-2435","PERIOD":"95.593","RA_OF_ASC_NODE":"334.5826","FILE":"3244825","ELEMENT_SET_NO":"999","MEAN_MOTION":"15.06393622","OBJECT_TYPE":"PAYLOAD","APOAPSIS":"548.516","REF_FRAME":"TEME","NORAD_CAT_ID":"47843","LAUNCH_DATE":"2021-03-11","MEAN_ELEMENT_THEORY":"SGP4","INCLINATION":"53.0571","MEAN_ANOMALY":"305.1916","EPOCH":"2021-12-19T15:48:46.770624","MEAN_MOTION_DDOT":"0.0000000000000","PERIAPSIS":"545.950","CLASSIFICATION_TYPE":"U","SEMIMAJOR_AXIS":"6925.368","TIME_SYSTEM":"UTC","ECCENTRICITY":"0.00018530","OBJECT_ID":"2021-018BJ","ARG_OF_PERICENTER":"54.9246","RCS_SIZE":"LARGE","EPHEMERIS_TYPE":"0","REV_AT_EPOCH":"4427"},{"RCS_SIZE":"LARGE","OBJECT_ID":"2021-018BK","ARG_OF_PERICENTER":"58.4222","ECCENTRICITY":"0.00020270","TIME_SYSTEM":"UTC","REV_AT_EPOCH":"4436","EPHEMERIS_TYPE":"0","MEAN_MOTION_DDOT":"0.0000000000000","EPOCH":"2021-12-19T22:08:55.558464","SEMIMAJOR_AXIS":"6925.278","PERIAPSIS":"545.739","CLASSIFICATION_TYPE":"U","MEAN_ELEMENT_THEORY":"SGP4","LAUNCH_DATE":"2021-03-11","INCLINATION":"53.0564","MEAN_ANOMALY":"301.6964","OBJECT_TYPE":"PAYLOAD","APOAPSIS":"548.547","REF_FRAME":"TEME","NORAD_CAT_ID":"47844","RA_OF_ASC_NODE":"328.3882","FILE":"3244825","MEAN_MOTION":"15.06422966","ELEMENT_SET_NO":"999","MEAN_MOTION_DOT":"-0.00000653","DECAY_DATE":null,"OBJECT_NAME":"STARLINK-2446","PERIOD":"95.591","GP_ID":"192040557","CENTER_NAME":"EARTH","TLE_LINE2":"2 47844  53.0564 328.3882 0002027  58.4222 301.6964 15.06422966 44367","TLE_LINE1":"1 47844U 21018BK  21353.92286526 -.00000653  00000-0 -24910-4 0  9999","SITE":"AFETR","COUNTRY_CODE":"US","BSTAR":"-0.00002491000000"},{"MEAN_ANOMALY":"308.4801","MEAN_ELEMENT_THEORY":"SGP4","LAUNCH_DATE":"2021-03-11","INCLINATION":"53.0561","NORAD_CAT_ID":"47845","REF_FRAME":"TEME","APOAPSIS":"548.630","OBJECT_TYPE":"PAYLOAD","REV_AT_EPOCH":"4433","EPHEMERIS_TYPE":"0","RCS_SIZE":"LARGE","TIME_SYSTEM":"UTC","OBJECT_ID":"2021-018BL","ARG_OF_PERICENTER":"51.6372","ECCENTRICITY":"0.00020460","SEMIMAJOR_AXIS":"6925.348","PERIAPSIS":"545.796","CLASSIFICATION_TYPE":"U","MEAN_MOTION_DDOT":"0.0000000000000","EPOCH":"2021-12-19T16:13:19.874208","TLE_LINE1":"1 47845U 21018BL  21353.67592447  .00000124  00000-0  27263-4 0  9999","TLE_LINE2":"2 47845  53.0561 329.5062 0002046  51.6372 308.4801 15.06400271 44337","COUNTRY_CODE":"US","BSTAR":"0.00002726300000","SITE":"AFETR","MEAN_MOTION":"15.06400271","ELEMENT_SET_NO":"999","FILE":"3244825","RA_OF_ASC_NODE":"329.5062","PERIOD":"95.592","OBJECT_NAME":"STARLINK-2453","GP_ID":"192040807","CENTER_NAME":"EARTH","MEAN_MOTION_DOT":"0.00000124","DECAY_DATE":null},{"APOAPSIS":"548.425","OBJECT_TYPE":"PAYLOAD","NORAD_CAT_ID":"47846","REF_FRAME":"TEME","MEAN_ELEMENT_THEORY":"SGP4","LAUNCH_DATE":"2021-03-11","INCLINATION":"53.0560","MEAN_ANOMALY":"301.1819","EPOCH":"2021-12-19T16:08:00.651264","MEAN_MOTION_DDOT":"0.0000000000000","PERIAPSIS":"545.993","CLASSIFICATION_TYPE":"U","SEMIMAJOR_AXIS":"6925.344","TIME_SYSTEM":"UTC","ECCENTRICITY":"0.00017560","ARG_OF_PERICENTER":"58.9342","OBJECT_ID":"2021-018BM","RCS_SIZE":"LARGE","EPHEMERIS_TYPE":"0","REV_AT_EPOCH":"4438","SITE":"AFETR","BSTAR":"0.00007412800000","COUNTRY_CODE":"US","TLE_LINE2":"2 47846  53.0560 329.5210 0001756  58.9342 301.1819 15.06401366 44386","TLE_LINE1":"1 47846U 21018BM  21353.67222976  .00000823  00000-0  74128-4 0  9995","DECAY_DATE":null,"MEAN_MOTION_DOT":"0.00000823","GP_ID":"192041559","CENTER_NAME":"EARTH","PERIOD":"95.592","OBJECT_NAME":"STARLINK-2456","FILE":"3244825","RA_OF_ASC_NODE":"329.5210","ELEMENT_SET_NO":"999","MEAN_MOTION":"15.06401366"}];
